TRANSPORTER-11AU        
1 60510U 24149AU  25361.18214167  .00017912  00000+0  53695-3 0  9999
2 60510  97.3892  79.1110 0004163 169.3875 190.7457 15.34539156 75887
FLOCK 4BE-2             
1 60511U 24149AV  25361.18309545  .00024440  00000+0  66026-3 0  9991
2 60511  97.3972  80.6512 0003668 169.2723 190.8600 15.37734744 75952
FLOCK 4BE-13            
1 60512U 24149AW  25361.19262560  .00020366  00000+0  58893-3 0  9994
2 60512  97.3878  79.4346 0004937 154.7856 205.3629 15.35642577 75914
FLOCK 4BE-27            
1 60513U 24149AX  25361.17174073  .00013247  00000+0  44856-3 0  9998
2 60513  97.3982  78.2688 0003999 179.8085 180.3158 15.30702585 75792
FLOCK 4BE-9             
1 60514U 24149AY  25361.45443544  .00016981  00000+0  50479-3 0  9998
2 60514  97.3944  79.6933 0003519 174.9013 185.2267 15.34817951 75922
FLOCK 4BE-8             
1 60515U 24149AZ  25361.22674465  .00125327  00000+0  23275-2 0  9990
2 60515  97.3869  79.9493 0002741 194.2752 165.8422 15.48462169 75945
FLOCK 4BE-6             
1 60516U 24149BA  25361.17384919  .00018346  00000+0  56121-3 0  9996
2 60516  97.3948  79.0383 0003992 178.6944 181.4310 15.33891205 75852
FLOCK 4BE-14            
1 60517U 24149BB  25361.47994226  .00016293  00000+0  48359-3 0  9991
2 60517  97.3867  79.3910 0005411 177.6827 182.4442 15.34866999 75938
FLOCK 4BE-1             
1 60518U 24149BC  25361.18772562  .00021627  00000+0  62261-3 0  9992
2 60518  97.3938  79.8487 0004857 176.4616 183.6663 15.35771073 75913
FLOCK 4BE-28            
1 60519U 24149BD  25361.49397955  .00022458  00000+0  61524-3 0  9990
2 60519  97.3902  80.4260 0004694 175.0310 185.0982 15.37314733 75993
IPERDRONE.0             
1 60520U 24149BE  25361.38901115  .00040833  00000+0  79535-3 0  9997
2 60520  97.3925  83.7443 0004206 147.5922 212.5587 15.47435086 76197
TRANSPORTER-11BF        
1 60521U 24149BF  25361.50374330  .00051274  00000+0  89852-3 0  9999
2 60521  97.3943  84.6203 0004502 155.1207 205.0263 15.50415118 76255
CONNECTA IOT-2          
1 60522U 24149BG  25361.18747519  .00005782  00000+0  24951-3 0  9999
2 60522  97.4008  77.0314 0006401 197.2182 162.8838 15.22894564 75710
PTD-R (TYVAK-0127)      
1 60523U 24149BH  25361.52324628  .00048532  00000+0  72746-3 0  9995
2 60523  97.3899  86.7411 0004143 156.8680 203.2761 15.54790323 76414
CONNECTA IOT-4          
1 60524U 24149BJ  25361.48136554  .00018988  00000+0  55229-3 0  9999
2 60524  97.3947  79.5632 0006020 175.8221 184.3074 15.35468373 75929
ORESAT0.5               
1 60525U 24149BK  25361.17332019  .00022897  00000+0  61801-3 0  9997
2 60525  97.3870  80.3518 0006433 168.8759 191.2629 15.37761120 75970
DEIMOS                  
1 60526U 24149BL  25361.19312412  .00021199  00000+0  58226-3 0  9996
2 60526  97.3935  80.5580 0006250 175.0541 185.0767 15.37237096 75963
CUAVA-2                 
1 60527U 24149BM  25361.18680170  .00015420  00000+0  51204-3 0  9994
2 60527  97.3894  77.8756 0007413 177.9753 182.1519 15.31280792 75801
ERNST                   
1 60528U 24149BN  25361.19532110  .00017218  00000+0  52873-3 0  9996
2 60528  97.3961  79.1811 0006574 182.2679 177.8535 15.33771313 75868
GAINDESAT-1A            
1 60529U 24149BP  25361.52687750  .00335032  00000+0  15290-2 0  9993
2 60529  97.3853  90.3793 0002354 230.5239 129.5822 15.82908036 76631
TORO                    
1 60530U 24149BQ  25360.74522872  .00002779  00000+0  25575-3 0  9998
2 60530  97.6975  73.5825 0001338 106.9308 253.2060 14.95554014 74176
HYPSO-2                 
1 60531U 24149BR  25361.16429559  .00005565  00000+0  48106-3 0  9995
2 60531  97.7006  74.9287 0001959 118.8373 241.3046 14.97593745 74294
LEMU NGE                
1 60532U 24149BS  25361.47862269  .00003550  00000+0  32500-3 0  9992
2 60532  97.7018  74.8223 0001240 149.6317 210.4975 14.95588391 74309
LEMUR-2-STELLA          
1 60533U 24149BT  25361.21892491  .00013903  00000+0  92623-3 0  9990
2 60533  97.6889  78.3866 0000730 109.7022 250.4284 15.07212512 74557
SATELIOT_2              
1 60534U 24149BU  25361.46105803  .00002393  00000+0  22130-3 0  9999
2 60534  97.7016  74.5065 0000844  72.6363 287.4950 14.95495267 74299
NIGHTJAR                
1 60535U 24149BV  25361.44068420  .00004748  00000+0  41014-3 0  9999
2 60535  97.7043  75.5544 0001449  71.9906 288.1474 14.97696525117154
LEMUR-2-MARHISYAM       
1 60536U 24149BW  25361.21221413  .00013117  00000+0  88384-3 0  9999
2 60536  97.7029  78.6345 0002185  22.5189 337.6134 15.06804610 74540
SATELIOT_4              
1 60537U 24149BX  25361.44070654  .00002509  00000+0  22972-3 0  9998
2 60537  97.6933  74.1288 0000744 204.9474 155.1711 14.95835088 74299
PICO-02A021             
1 60538U 24149BY  25361.18785447  .00006904  00000+0  54406-3 0  9993
2 60538  97.6923  76.6635 0005516 184.7413 175.3759 15.01076856 73914
ICEYE-X43               
1 60539U 24149BZ  25361.18336006  .00003858  00000+0  32587-3 0  9998
2 60539  97.6982  75.4513 0001977 300.6252  59.4776 14.98684151 74346
HAWK-10A                
1 60540U 24149CA  25361.49565885  .00002941  00000+0  26863-3 0  9995
2 60540  97.7080  75.3018 0001906 295.9677  64.1348 14.95809882 74318
UMBRA-09                
1 60541U 24149CB  25361.22275777  .00018760  00000+0  11055-2 0  9997
2 60541  97.7105  81.2045 0001678 208.6438 151.4700 15.11637980 74684
QPS-SAR-8 (AMATERU-IV)  
1 60542U 24149CC  25361.17802313  .00008118  00000+0  62644-3 0  9991
2 60542  97.6782  76.9224 0004191 344.9703  15.1396 15.01830775 74433
ARCTIC WEATHER SATELLITE
1 60543U 24149CD  25361.48134023  .00001336  00000+0  14486-3 0  9998
2 60543  97.7007  71.6919 0001539   0.1992 359.9226 14.89807787 73737
CAPELLA-15 (ACADIA-5)   
1 60544U 24149CE  25360.74596874  .00005875  00000+0  57841-3 0  9997
2 60544  97.6963  72.7989 0003660 284.8879  75.1935 14.92438895 74132
HAWK-10B                
1 60545U 24149CF  25361.49552620  .00002888  00000+0  26384-3 0  9991
2 60545  97.7001  74.8257 0004087 320.7494  39.3430 14.95810259 74318
ICEYE-X39               
1 60546U 24149CG  25361.15568468  .00004949  00000+0  41810-3 0  9993
2 60546  97.6957  75.4921 0002424 299.8052  60.2930 14.98545191 74346
UMBRA-10                
1 60547U 24149CH  25361.15611694  .00020187  00000+0  11891-2 0  9991
2 60547  97.7103  81.1501 0001311 167.0211 193.1053 15.11635304 74687
ICEYE-X33               
1 60548U 24149CJ  25361.50074890  .00005938  00000+0  47902-3 0  9992
2 60548  97.7038  76.9647 0004467 359.2686   0.8530 15.00242974 74458
ICEYE-X40               
1 60549U 24149CK  25361.45338574  .00001263  00000+0  11433-3 0  9996
2 60549  97.6992  75.6714 0003592 305.9279  54.1609 14.97167886 74375
SATELIOT_1              
1 60550U 24149CL  25361.45223779  .00002172  00000+0  19295-3 0  9992
2 60550  97.6937  75.1807 0005488 297.6374  62.4290 14.97170648 74360
BRO-14                  
1 60551U 24149CM  25361.15815343  .00002523  00000+0  23211-3 0  9997
2 60551  97.7057  74.9481 0005654 323.0120  37.0711 14.95649671 74279
SATELIOT_3              
1 60552U 24149CN  25361.16230270  .00003950  00000+0  34654-3 0  9997
2 60552  97.7000  75.5243 0003759 314.4394  45.6520 14.97192132 74339
BRO-15                  
1 60553U 24149CP  25361.20450517  .00001080  00000+0  10221-3 0  9997
2 60553  97.6985  74.7543 0006983 308.9279  51.1319 14.95672984 74296
UM5-RIBAT               
1 60554U 24149CQ  25361.15616200  .00005709  00000+0  46745-3 0  9997
2 60554  97.6925  76.1115 0004716 283.9449  76.1250 14.99685953 74391
UM5-EOSAT               
1 60555U 24149CR  25361.17052501  .00005724  00000+0  46337-3 0  9992
2 60555  97.7050  76.8289 0006756 334.2583  25.8303 15.00114667 74411
LASARSAT                
1 62391U 24247Q   25361.44629433  .00030041  00000+0  86594-3 0  9994
2 62391  44.9767 139.4136 0003473 233.2686 126.7881 15.35248639 56824
CROCUBE                 
1 62394U 24247T   25361.38954933  .00033085  00000+0  93049-3 0  9990
2 62394  44.9741 138.9268 0004660 231.5213 128.5255 15.35970528 56829
TEVEL2-4                
1 63213U 25052D   25361.45726688  .00020999  00000+0  77941-3 0  9991
2 63213  97.4102 253.1886 0003937  32.0493 328.0985 15.27597281 43836
TEVEL2-5                
1 63214U 25052E   25361.26694316  .00020147  00000+0  75000-3 0  9992
2 63214  97.4092 252.9855 0003989  32.4046 327.7437 15.27508856 43808
TEVEL2-6                
1 63215U 25052F   25360.68510186  .00018895  00000+0  70518-3 0  9996
2 63215  97.4096 252.3953 0004187  33.2158 326.9343 15.27436854 43715
TEVEL2-1                
1 63217U 25052H   25361.45158541  .00020168  00000+0  75933-3 0  9999
2 63217  97.4069 252.9552 0004561  40.3291 319.8285 15.27130428 43827
TEVEL2-3                
1 63218U 25052J   25361.45056714  .00020438  00000+0  76890-3 0  9992
2 63218  97.4070 252.9604 0004609  40.5186 319.6395 15.27153507 43829
TEVEL2-2                
1 63219U 25052K   25361.45233948  .00020388  00000+0  76755-3 0  9993
2 63219  97.4072 252.9566 0004583  40.9404 319.2179 15.27131828 43825
TEVEL2-9                
1 63237U 25052AD  25361.16759695  .00020423  00000+0  80454-3 0  9994
2 63237  97.4133 252.3593 0008712  41.9974 318.1930 15.25596541 43747
TEVEL2-7                
1 63238U 25052AE  25361.24857531  .00019032  00000+0  75367-3 0  9993
2 63238  97.4135 252.4108 0008791  41.8652 318.3257 15.25436933 43755
TEVEL2-8                
1 63239U 25052AF  25361.45124898  .00019298  00000+0  76452-3 0  9990
2 63239  97.4134 252.5956 0008727  41.3615 318.8282 15.25419310 43786
HADES-ICM               
1 63492U 25052BN  25359.95031581  .00063987  00000+0  15389-2 0  9994
2 63492  97.4051 253.6281 0010828  40.2298 319.9748 15.41023613 43737
